start=new Date('2021-10-16T00:00:00.000Z').valueOf();
sats=[{"RA_OF_ASC_NODE":"223.0133","TIME_SYSTEM":"UTC","ARG_OF_PERICENTER":"73.6317","MEAN_MOTION_DDOT":"0.0000000000000","INCLINATION":"53.0559","COUNTRY_CODE":"US","REF_FRAME":"TEME","TLE_LINE1":"1 47740U 21017U   21288.29474012 -.00001816  00000-0 -10306-3 0  9994","DECAY_DATE":null,"OBJECT_NAME":"STARLINK-2152","OBJECT_TYPE":"PAYLOAD","SEMIMAJOR_AXIS":"6925.373","LAUNCH_DATE":"2021-03-04","PERIOD":"95.593","REV_AT_EPOCH":"3565","MEAN_MOTION_DOT":"-0.00001816","MEAN_ELEMENT_THEORY":"SGP4","GP_ID":"187239392","EPOCH":"2021-10-15T07:04:25.546368","SITE":"AFETR","FILE":"3164360","EPHEMERIS_TYPE":"0","APOAPSIS":"548.265","BSTAR":"-0.00010306000000","PERIAPSIS":"546.212","ELEMENT_SET_NO":"999","NORAD_CAT_ID":"47740","MEAN_ANOMALY":"286.4835","ECCENTRICITY":"0.00014820","OBJECT_ID":"2021-017U","TLE_LINE2":"2 47740  53.0559 223.0133 0001482  73.6317 286.4835 15.06391920 35658","CLASSIFICATION_TYPE":"U","RCS_SIZE":"LARGE","MEAN_MOTION":"15.06391920","CENTER_NAME":"EARTH"},{"SEMIMAJOR_AXIS":"6925.362","OBJECT_TYPE":"PAYLOAD","REF_FRAME":"TEME","TLE_LINE1":"1 47741U 21017V   21288.77390068 -.00000081  00000-0  13456-4 0  9998","DECAY_DATE":null,"OBJECT_NAME":"STARLINK-2154","COUNTRY_CODE":"US","INCLINATION":"53.0562","MEAN_MOTION_DDOT":"0.0000000000000","TIME_SYSTEM":"UTC","ARG_OF_PERICENTER":"64.4916","RA_OF_ASC_NODE":"220.8601","PERIOD":"95.592","LAUNCH_DATE":"2021-03-04","GP_ID":"187279838","MEAN_ELEMENT_THEORY":"SGP4","MEAN_MOTION_DOT":"-0.00000081","REV_AT_EPOCH":"3568","MEAN_MOTION":"15.06395614","CENTER_NAME":"EARTH","TLE_LINE2":"2 47741  53.0562 220.8601 0001510  64.4916 295.6229 15.06395614 35689","CLASSIFICATION_TYPE":"U","RCS_SIZE":"LARGE","OBJECT_ID":"2021-017V","ECCENTRICITY":"0.00015100","MEAN_ANOMALY":"295.6229","BSTAR":"0.00001345600000","PERIAPSIS":"546.181","NORAD_CAT_ID":"47741","ELEMENT_SET_NO":"999","EPHEMERIS_TYPE":"0","APOAPSIS":"548.273","SITE":"AFETR","FILE":"3165217","EPOCH":"2021-10-15T18:34:25.018752"},{"REV_AT_EPOCH":"3583","MEAN_ELEMENT_THEORY":"SGP4","MEAN_MOTION_DOT":"-0.00000743","GP_ID":"187279589","FILE":"3165217","SITE":"AFETR","EPOCH":"2021-10-15T12:29:32.403552","PERIAPSIS":"546.169","ELEMENT_SET_NO":"999","NORAD_CAT_ID":"47742","BSTAR":"-0.00003100800000","APOAPSIS":"548.369","EPHEMERIS_TYPE":"0","OBJECT_ID":"2021-017W","MEAN_ANOMALY":"290.2535","ECCENTRICITY":"0.00015880","CENTER_NAME":"EARTH","MEAN_MOTION":"15.06381865","RCS_SIZE":"LARGE","TLE_LINE2":"2 47742  53.0572 211.9951 0001588  69.8625 290.2535 15.06381865 35832","CLASSIFICATION_TYPE":"U","ARG_OF_PERICENTER":"69.8625","TIME_SYSTEM":"UTC","RA_OF_ASC_NODE":"211.9951","MEAN_MOTION_DDOT":"0.0000000000000","INCLINATION":"53.0572","OBJECT_NAME":"STARLINK-2156","TLE_LINE1":"1 47742U 21017W   21288.52051393 -.00000743  00000-0 -31008-4 0  9996","DECAY_DATE":null,"REF_FRAME":"TEME","COUNTRY_CODE":"US","SEMIMAJOR_AXIS":"6925.404","OBJECT_TYPE":"PAYLOAD","LAUNCH_DATE":"2021-03-04","PERIOD":"95.593"},{"REV_AT_EPOCH":"3585","MEAN_ELEMENT_THEORY":"SGP4","MEAN_MOTION_DOT":"0.00000032","GP_ID":"187280840","FILE":"3165217","SITE":"AFETR","EPOCH":"2021-10-15T19:28:50.473056","NORAD_CAT_ID":"47743","PERIAPSIS":"546.263","ELEMENT_SET_NO":"999","BSTAR":"0.00002106100000","APOAPSIS":"548.253","EPHEMERIS_TYPE":"0","OBJECT_ID":"2021-017X","MEAN_ANOMALY":"271.9879","ECCENTRICITY":"0.00014370","CENTER_NAME":"EARTH","MEAN_MOTION":"15.06385580","RCS_SIZE":"LARGE","TLE_LINE2":"2 47743  53.0556 210.6714 0001437  88.1274 271.9879 15.06385580 35852","CLASSIFICATION_TYPE":"U","ARG_OF_PERICENTER":"88.1274","TIME_SYSTEM":"UTC","RA_OF_ASC_NODE":"210.6714","INCLINATION":"53.0556","MEAN_MOTION_DDOT":"0.0000000000000","DECAY_DATE":null,"TLE_LINE1":"1 47743U 21017X   21288.81169529  .00000032  00000-0  21061-4 0  9997","OBJECT_NAME":"STARLINK-2157","REF_FRAME":"TEME","COUNTRY_CODE":"US","SEMIMAJOR_AXIS":"6925.393","OBJECT_TYPE":"PAYLOAD","LAUNCH_DATE":"2021-03-04","PERIOD":"95.593"},{"RCS_SIZE":"LARGE","CLASSIFICATION_TYPE":"U","TLE_LINE2":"2 47744  53.0568 211.9748 0001483  72.7814 287.3337 15.06387983 35834","CENTER_NAME":"EARTH","MEAN_MOTION":"15.06387983","ECCENTRICITY":"0.00014830","MEAN_ANOMALY":"287.3337","OBJECT_ID":"2021-017Y","APOAPSIS":"548.277","EPHEMERIS_TYPE":"0","PERIAPSIS":"546.223","ELEMENT_SET_NO":"999","NORAD_CAT_ID":"47744","BSTAR":"-0.00005364300000","EPOCH":"2021-10-15T12:34:50.146464","FILE":"3165217","SITE":"AFETR","GP_ID":"187280591","MEAN_MOTION_DOT":"-0.00001080","MEAN_ELEMENT_THEORY":"SGP4","REV_AT_EPOCH":"3583","PERIOD":"95.593","LAUNCH_DATE":"2021-03-04","OBJECT_TYPE":"PAYLOAD","SEMIMAJOR_AXIS":"6925.385","COUNTRY_CODE":"US","TLE_LINE1":"1 47744U 21017Y   21288.52419151 -.00001080  00000-0 -53643-4 0  9992","DECAY_DATE":null,"OBJECT_NAME":"STARLINK-2158","REF_FRAME":"TEME","INCLINATION":"53.0568","MEAN_MOTION_DDOT":"0.0000000000000","RA_OF_ASC_NODE":"211.9748","ARG_OF_PERICENTER":"72.7814","TIME_SYSTEM":"UTC"},{"ARG_OF_PERICENTER":"69.6961","TIME_SYSTEM":"UTC","RA_OF_ASC_NODE":"221.8549","INCLINATION":"53.0575","MEAN_MOTION_DDOT":"0.0000000000000","TLE_LINE1":"1 47745U 21017Z   21288.55275790 -.00001217  00000-0 -62802-4 0  9994","OBJECT_NAME":"STARLINK-2159","DECAY_DATE":null,"REF_FRAME":"TEME","COUNTRY_CODE":"US","SEMIMAJOR_AXIS":"6925.372","OBJECT_TYPE":"PAYLOAD","LAUNCH_DATE":"2021-03-04","PERIOD":"95.593","REV_AT_EPOCH":"3564","MEAN_ELEMENT_THEORY":"SGP4","MEAN_MOTION_DOT":"-0.00001217","GP_ID":"187279339","FILE":"3165217","SITE":"AFETR","EPOCH":"2021-10-15T13:15:58.282560","PERIAPSIS":"546.077","ELEMENT_SET_NO":"999","NORAD_CAT_ID":"47745","BSTAR":"-0.00006280200000","APOAPSIS":"548.397","EPHEMERIS_TYPE":"0","OBJECT_ID":"2021-017Z","ECCENTRICITY":"0.00016750","MEAN_ANOMALY":"290.4208","CENTER_NAME":"EARTH","MEAN_MOTION":"15.06392329","RCS_SIZE":"LARGE","TLE_LINE2":"2 47745  53.0575 221.8549 0001675  69.6961 290.4208 15.06392329 35644","CLASSIFICATION_TYPE":"U"},{"TLE_LINE2":"2 47746  53.0552 221.8679 0001670  69.4650 290.6518 15.06390291 35633","CLASSIFICATION_TYPE":"U","RCS_SIZE":"LARGE","MEAN_MOTION":"15.06390291","CENTER_NAME":"EARTH","ECCENTRICITY":"0.00016700","MEAN_ANOMALY":"290.6518","OBJECT_ID":"2021-017AA","EPHEMERIS_TYPE":"0","APOAPSIS":"548.400","BSTAR":"-0.00006507600000","PERIAPSIS":"546.087","NORAD_CAT_ID":"47746","ELEMENT_SET_NO":"999","EPOCH":"2021-10-15T13:05:21.511104","SITE":"AFETR","FILE":"3165217","GP_ID":"187280089","MEAN_MOTION_DOT":"-0.00001250","MEAN_ELEMENT_THEORY":"SGP4","REV_AT_EPOCH":"3563","PERIOD":"95.593","LAUNCH_DATE":"2021-03-04","OBJECT_TYPE":"PAYLOAD","SEMIMAJOR_AXIS":"6925.378","COUNTRY_CODE":"US","REF_FRAME":"TEME","TLE_LINE1":"1 47746U 21017AA  21288.54538786 -.00001250  00000-0 -65076-4 0  9994","DECAY_DATE":null,"OBJECT_NAME":"STARLINK-2160","INCLINATION":"53.0552","MEAN_MOTION_DDOT":"0.0000000000000","RA_OF_ASC_NODE":"221.8679","TIME_SYSTEM":"UTC","ARG_OF_PERICENTER":"69.4650"},{"SEMIMAJOR_AXIS":"6925.399","OBJECT_TYPE":"PAYLOAD","REF_FRAME":"TEME","TLE_LINE1":"1 47747U 21017AB  21288.27723452 -.00000978  00000-0 -46778-4 0  9995","OBJECT_NAME":"STARLINK-2161","DECAY_DATE":null,"COUNTRY_CODE":"US","INCLINATION":"53.0571","MEAN_MOTION_DDOT":"0.0000000000000","TIME_SYSTEM":"UTC","ARG_OF_PERICENTER":"69.1550","RA_OF_ASC_NODE":"213.0841","PERIOD":"95.593","LAUNCH_DATE":"2021-03-04","GP_ID":"187239143","MEAN_ELEMENT_THEORY":"SGP4","MEAN_MOTION_DOT":"-0.00000978","REV_AT_EPOCH":"3577","MEAN_MOTION":"15.06383543","CENTER_NAME":"EARTH","TLE_LINE2":"2 47747  53.0571 213.0841 0001525  69.1550 290.9602 15.06383543 35778","CLASSIFICATION_TYPE":"U","RCS_SIZE":"LARGE","OBJECT_ID":"2021-017AB","MEAN_ANOMALY":"290.9602","ECCENTRICITY":"0.00015250","BSTAR":"-0.00004677800000","PERIAPSIS":"546.208","NORAD_CAT_ID":"47747","ELEMENT_SET_NO":"999","EPHEMERIS_TYPE":"0","APOAPSIS":"548.320","SITE":"AFETR","FILE":"3164360","EPOCH":"2021-10-15T06:39:13.062528"},{"OBJECT_ID":"2021-017AC","MEAN_ANOMALY":"288.3492","ECCENTRICITY":"0.00016530","MEAN_MOTION":"15.06385287","CENTER_NAME":"EARTH","TLE_LINE2":"2 47748  53.0573 210.7360 0001653  71.7676 288.3492 15.06385287 35822","CLASSIFICATION_TYPE":"U","RCS_SIZE":"LARGE","SITE":"AFETR","FILE":"3165217","EPOCH":"2021-10-15T19:12:55.095552","BSTAR":"-0.00012162000000","ELEMENT_SET_NO":"999","PERIAPSIS":"546.114","NORAD_CAT_ID":"47748","EPHEMERIS_TYPE":"0","APOAPSIS":"548.403","GP_ID":"187281091","REV_AT_EPOCH":"3582","MEAN_ELEMENT_THEORY":"SGP4","MEAN_MOTION_DOT":"-0.00002092","PERIOD":"95.593","LAUNCH_DATE":"2021-03-04","REF_FRAME":"TEME","TLE_LINE1":"1 47748U 21017AC  21288.80063768 -.00002092  00000-0 -12162-3 0  9990","OBJECT_NAME":"STARLINK-2162","DECAY_DATE":null,"COUNTRY_CODE":"US","SEMIMAJOR_AXIS":"6925.394","OBJECT_TYPE":"PAYLOAD","TIME_SYSTEM":"UTC","ARG_OF_PERICENTER":"71.7676","RA_OF_ASC_NODE":"210.7360","MEAN_MOTION_DDOT":"0.0000000000000","INCLINATION":"53.0573"},{"GP_ID":"187279839","MEAN_MOTION_DOT":"0.00000252","MEAN_ELEMENT_THEORY":"SGP4","REV_AT_EPOCH":"3582","RCS_SIZE":"MEDIUM","CLASSIFICATION_TYPE":"U","TLE_LINE2":"2 47749  53.0553 210.6542 0001691  67.0705 293.0463 15.06386128 35821","CENTER_NAME":"EARTH","MEAN_MOTION":"15.06386128","MEAN_ANOMALY":"293.0463","ECCENTRICITY":"0.00016910","OBJECT_ID":"2021-017AD","APOAPSIS":"548.427","EPHEMERIS_TYPE":"0","NORAD_CAT_ID":"47749","PERIAPSIS":"546.085","ELEMENT_SET_NO":"999","BSTAR":"0.00003581700000","EPOCH":"2021-10-15T19:34:08.961600","FILE":"3165217","SITE":"AFETR","OBJECT_TYPE":"PAYLOAD","SEMIMAJOR_AXIS":"6925.391","COUNTRY_CODE":"US","DECAY_DATE":null,"TLE_LINE1":"1 47749U 21017AD  21288.81538150  .00000252  00000-0  35817-4 0  9991","OBJECT_NAME":"STARLINK-2163","REF_FRAME":"TEME","MEAN_MOTION_DDOT":"0.0000000000000","INCLINATION":"53.0553","RA_OF_ASC_NODE":"210.6542","ARG_OF_PERICENTER":"67.0705","TIME_SYSTEM":"UTC","PERIOD":"95.593","LAUNCH_DATE":"2021-03-04"}];
